IRIDIUM 155             
1 43573U 18061E   24191.16993819  .00000367  00000+0  12396-3 0  9990
2 43573  86.3981 352.5675 0002405  92.7304 267.4167 14.34217714311886
IRIDIUM 154             
1 43574U 18061F   24190.94160154  .00000397  00000+0  13454-3 0  9993
2 43574  86.3985 352.7616 0001886  92.1264 268.0148 14.34219838311895
IRIDIUM 163             
1 43575U 18061G   24190.92257470 -.00000042  00000+0 -22014-4 0  9992
2 43575  86.3976 352.7074 0002052  93.2526 266.8904 14.34217464311869
IRIDIUM 156             
1 43576U 18061H   24191.17627721  .00000321  00000+0  10760-3 0  9993
2 43576  86.3983 352.6075 0002292  88.2407 271.9052 14.34219332311885
IRIDIUM 164             
1 43577U 18061J   24190.94794504  .00000121  00000+0  36023-4 0  9991
2 43577  86.3984 352.7323 0002030  83.9907 276.1520 14.34218148311905
IRIDIUM 159             
1 43578U 18061K   24191.19530553  .00000093  00000+0  26144-4 0  9993
2 43578  86.3982 352.5804 0001921  90.5626 269.5790 14.34218058311901
IRIDIUM 180             
1 43922U 19002A   24190.91572824  .00000158  00000+0  49183-4 0  9998
2 43922  86.3968 289.5770 0002145  97.7399 262.4040 14.34218431287473
IRIDIUM 176             
1 43923U 19002B   24190.79957360  .00001528  00000+0  23846-3 0  9996
2 43923  86.6097 289.6459 0002149  92.3318 267.8145 14.72244171295028
IRIDIUM 168             
1 43924U 19002C   24190.76984995  .00000114  00000+0  33619-4 0  9998
2 43924  86.3971 289.6951 0002170  92.6705 267.4739 14.34216610287437
IRIDIUM 173             
1 43925U 19002D   24190.82693198  .00000257  00000+0  84536-4 0  9990
2 43925  86.3968 289.5893 0002082  94.0889 266.0545 14.34217603287421
IRIDIUM 169             
1 43926U 19002E   24191.10499465  .00000507  00000+0  15908-3 0  9998
2 43926  86.4241 321.1010 0003551 127.4645 232.6876 14.38629019288423
IRIDIUM 172             
1 43927U 19002F   24190.82059002  .00000193  00000+0  61994-4 0  9994
2 43927  86.3969 289.5980 0002133  93.7607 266.3832 14.34217685287435
IRIDIUM 175             
1 43928U 19002G   24191.20173167  .00001246  00000+0  19368-3 0  9994
2 43928  86.1500 261.3739 0002258 100.8482 259.2989 14.72237172295072
IRIDIUM 171             
1 43929U 19002H   24191.22017230  .00000086  00000+0  23618-4 0  9990
2 43929  86.3977 289.6590 0002276  89.1218 271.0239 14.34218533287481
IRIDIUM 170             
1 43930U 19002J   24190.80575444  .00001500  00000+0  23404-3 0  9995
2 43930  86.6096 289.6483 0002330  94.4845 265.6638 14.72241586295033
IRIDIUM 167             
1 43931U 19002K   24190.79521716  .00000179  00000+0  57012-4 0  9991
2 43931  86.3968 289.6247 0002280  94.0774 266.0682 14.34216524287428
IRIDIUM 181             
1 56726U 23068S   24190.94180539  .00000539  00000+0  15338-3 0  9999
2 56726  86.8651 344.3528 0002473  91.5715 268.5770 14.43586130 60270
IRIDIUM 177             
1 56727U 23068T   24190.85779059  .00002091  00000+0  27177-3 0  9990
2 56727  86.1987 305.0704 0002392  84.8223 275.3271 14.80222930 61588
IRIDIUM 174             
1 56728U 23068U   24190.85235208  .00002084  00000+0  27082-3 0  9991
2 56728  86.1993 305.1785 0002365  93.7888 266.3603 14.80224101 61583
IRIDIUM 178             
1 56729U 23068V   24190.91452804  .00001980  00000+0  25721-3 0  9994
2 56729  86.5800 323.6436 0002282 100.9656 259.1823 14.80222447 61591
IRIDIUM 179             
1 56730U 23068W   24190.90909193  .00001991  00000+0  25868-3 0  9997
2 56730  86.6809 328.0538 0002444  98.1450 262.0048 14.80218306 61596
